[{"OBJECT_NAME":"STARLINK-35390","OBJECT_ID":"2025-218F","EPOCH":"2026-03-09T15:16:29.674848","MEAN_MOTION":15.05633876,"ECCENTRICITY":0.0002391,"INCLINATION":97.6024,"RA_OF_ASC_NODE":292.9305,"ARG_OF_PERICENTER":89.4011,"MEAN_ANOMALY":270.749,"EPHEMERIS_TYPE":0,"CLASSIFICATION_TYPE":"U","NORAD_CAT_ID":65796,"ELEMENT_SET_NO":999,"REV_AT_EPOCH":2496,"BSTAR":0.00060034,"MEAN_MOTION_DOT":8.609e-5,"MEAN_MOTION_DDOT":0},{"OBJECT_NAME":"UNKNOWN","OBJECT_ID":"","EPOCH":"2026-03-09T02:53:57.432768","MEAN_MOTION":15.04852502,"ECCENTRICITY":0.0007482,"INCLINATION":86.6587,"RA_OF_ASC_NODE":118.2618,"ARG_OF_PERICENTER":183.1315,"MEAN_ANOMALY":176.9875,"EPHEMERIS_TYPE":0,"CLASSIFICATION_TYPE":"U","NORAD_CAT_ID":82402,"ELEMENT_SET_NO":999,"REV_AT_EPOCH":46745,"BSTAR":0.00051144,"MEAN_MOTION_DOT":7.26e-5,"MEAN_MOTION_DDOT":0}]
